STARLINK-37408          
1 69518U 26133L   26173.83335648 -.01797971  90170-3 -50507-2 0  9995
2 69518  53.1569 293.7245 0000846  49.7052 210.1812 15.93008669  2775
STARLINK-37570          
1 69519U 26133M   26173.83335648 -.01784210  89665-3 -47912-2 0  9991
2 69519  53.1569 293.6858 0000827  51.2205 227.1482 15.93861060  2775
STARLINK-37510          
1 69520U 26133N   26173.83335648 -.01795510  90333-3 -49305-2 0  9990
2 69520  53.1564 293.7055 0000921  54.3820 214.8778 15.93439804  2772
STARLINK-37586          
1 69521U 26133P   26173.83335648 -.01770034  88906-3 -45998-2 0  9992
2 69521  53.1564 293.6556 0000826  54.7660 238.1805 15.94475419  2771
STARLINK-37379          
1 69522U 26133Q   26173.83335648 -.01770517  89177-3 -45405-2 0  9993
2 69522  53.1565 293.6423 0000834  52.1996 246.9850 15.94723025  2821
STARLINK-37429          
1 69523U 26133R   26173.83335648 -.01766461  89017-3 -44725-2 0  9994
2 69523  53.1564 293.6296 0000818  50.9732 254.2961 15.94961387  2825
STARLINK-37352          
1 69524U 26133S   26173.83335648 -.01752315  88086-3 -43365-2 0  9992
2 69524  53.1564 293.6105 0000775  50.4799 263.8828 15.95383348  2829
STARLINK-37490          
1 69525U 26133T   26173.83335648 -.01744768  88150-3 -41259-2 0  9998
2 69525  53.1561 293.5735 0000849  54.3317 277.7855 15.96220196  2822
STARLINK-37438          
1 69526U 26133U   26173.83335648 -.01741972  87444-3 -42296-2 0  9990
2 69526  53.1564 293.5948 0000897  56.9027 265.3589 15.95733937  2829
STARLINK-37484          
1 69527U 26133V   26173.83335648 -.01710998  85287-3 -39800-2 0  9995
2 69527  53.1561 293.5564 0000774  51.2137 289.1199 15.96517088  2824
STARLINK-37523          
1 69528U 26133W   26173.83335648 -.01728820  87198-3 -39596-2 0  9994
2 69528  53.1563 293.5428 0000845  51.0036 295.8203 15.96802124  2829
STARLINK-37369          
1 69529U 26133X   26173.83335648 -.01719659  86602-3 -38779-2 0  9996
2 69529  53.1558 293.5287 0000630  48.1389 305.4025 15.97083483  2827
STARLINK-37670          
1 69530U 26133Y   26173.83335648 -.01690962  84451-3 -36960-2 0  9993
2 69530  53.1559 293.5055 0000690  54.0508 310.7898 15.97643770  2826
STARLINK-37897          
1 69531U 26133Z   26173.83335648 -.01682241  83986-3 -36003-2 0  9995
2 69531  53.1557 293.4857 0000809  49.3777 324.7017 15.98020730  2779
STARLINK-37933          
1 69532U 26133AA  26173.83335648 -.01665444  82977-3 -34463-2 0  9999
2 69532  53.1558 293.4613 0000855  52.5020 333.1763 15.98620044  2775
STARLINK-37890          
1 69533U 26133AB  26173.83335648 -.01648240  81688-3 -33484-2 0  9995
2 69533  53.1559 293.4459 0000883  49.7401 343.3026 15.98945178  2770
STARLINK-37407          
1 69534U 26133AC  26173.83335648 -.01637744  81124-3 -32438-2 0  9996
2 69534  53.1555 293.4233 0001004  35.3942   8.1915 15.99391324  2822
STARLINK-37888          
1 69535U 26133AD  26173.83335648 -.01626797  80538-3 -31370-2 0  9995
2 69535  53.1559 293.4034 0000943  48.9168   4.1289 15.99860665  2770
STARLINK-37889          
1 69536U 26133AE  26173.83335648 -.01766896  88289-3 -46809-2 0  9995
2 69536  53.1581 293.6743 0000882  55.1071 229.7960 15.94113354  2772
2026-134A               
1 69538U 26134A   26173.62514307  .00003358  00000+0  21465-3 0  9993
2 69538  97.7006 243.7482 0014415 250.6893 109.2777 15.09246977  1138
2026-134B               
1 69539U 26134B   26173.22661176  .00003478  00000+0  22127-3 0  9996
2 69539  97.6979 243.3479 0014488 254.9990 104.9635 15.09401265  1064
2026-134C               
1 69540U 26134C   26173.22646784  .00003510  00000+0  22309-3 0  9995
2 69540  97.6985 243.3486 0013918 256.3323 103.6356 15.09432574  1067
2026-134D               
1 69541U 26134D   26173.22619834  .00003402  00000+0  21596-3 0  9999
2 69541  97.7021 243.3518 0014953 255.8010 104.1557 15.09489256  1061
2026-134E               
1 69542U 26134E   26173.62382529  .00003518  00000+0  22306-3 0  9990
2 69542  97.7045 243.7531 0014779 255.1300 104.8292 15.09514083  1125
2026-134F               
1 69543U 26134F   26173.22588331  .00003564  00000+0  22567-3 0  9996
2 69543  97.6996 243.3501 0014022 258.7453 101.2200 15.09557797  1064
2026-134G               
1 69544U 26134G   26173.42434021  .00003526  00000+0  22277-3 0  9991
2 69544  97.7040 243.5537 0014510 258.7523 101.2075 15.09642094  1095
2026-134H               
1 69545U 26134H   26173.22518713  .00003616  00000+0  22796-3 0  9997
2 69545  97.7025 243.3533 0014375 260.9671  98.9931 15.09706714  1050
SHIJIAN-31 (SJ-31)      
1 69570U 26136A   26167.84805573  .00006163  24751-6  28088-3 0  9997
2 69570  63.4649 356.1810 7310405 171.7246 356.2040  2.28095748    53
