OBJECT_NAME,OBJECT_ID,EPOCH,MEAN_MOTION,ECCENTRICITY,INCLINATION,RA_OF_ASC_NODE,ARG_OF_PERICENTER,MEAN_ANOMALY,EPHEMERIS_TYPE,CLASSIFICATION_TYPE,NORAD_CAT_ID,ELEMENT_SET_NO,REV_AT_EPOCH,BSTAR,MEAN_MOTION_DOT,MEAN_MOTION_DDOT
STARLINK-37408,2026-133L,2026-06-22T20:00:01.999872,15.93008669,.00008462,53.1569,293.7245,49.7052,210.1812,0,U,69518,999,277,-.50506554E-2,-.1797971E-1,.9017025E-3
STARLINK-37570,2026-133M,2026-06-22T20:00:01.999872,15.93861060,.00008278,53.1569,293.6858,51.2205,227.1482,0,U,69519,999,277,-.47911888E-2,-.178421E-1,.89665103E-3
STARLINK-37510,2026-133N,2026-06-22T20:00:01.999872,15.93439804,.00009216,53.1564,293.7055,54.3820,214.8778,0,U,69520,999,277,-.49305056E-2,-.179551E-1,.90332774E-3
STARLINK-37586,2026-133P,2026-06-22T20:00:01.999872,15.94475419,.00008267,53.1564,293.6556,54.7660,238.1805,0,U,69521,999,277,-.45997923E-2,-.1770034E-1,.88906331E-3
STARLINK-37379,2026-133Q,2026-06-22T20:00:01.999872,15.94723025,.00008346,53.1565,293.6423,52.1996,246.9850,0,U,69522,999,282,-.4540548E-2,-.1770517E-1,.89177036E-3
STARLINK-37429,2026-133R,2026-06-22T20:00:01.999872,15.94961387,.00008188,53.1564,293.6296,50.9732,254.2961,0,U,69523,999,282,-.44724724E-2,-.1766461E-1,.8901722E-3
STARLINK-37352,2026-133S,2026-06-22T20:00:01.999872,15.95383348,.00007755,53.1564,293.6105,50.4799,263.8828,0,U,69524,999,282,-.43365425E-2,-.1752315E-1,.88086064E-3
STARLINK-37490,2026-133T,2026-06-22T20:00:01.999872,15.96220196,.00008498,53.1561,293.5735,54.3317,277.7855,0,U,69525,999,282,-.41259493E-2,-.1744768E-1,.8815026E-3
STARLINK-37438,2026-133U,2026-06-22T20:00:01.999872,15.95733937,.00008979,53.1564,293.5948,56.9027,265.3589,0,U,69526,999,282,-.42295794E-2,-.1741972E-1,.87444479E-3
STARLINK-37484,2026-133V,2026-06-22T20:00:01.999872,15.96517088,.0000774,53.1561,293.5564,51.2137,289.1199,0,U,69527,999,282,-.39799627E-2,-.1710998E-1,.85287102E-3
STARLINK-37523,2026-133W,2026-06-22T20:00:01.999872,15.96802124,.00008456,53.1563,293.5428,51.0036,295.8203,0,U,69528,999,282,-.39596054E-2,-.172882E-1,.87197532E-3
STARLINK-37369,2026-133X,2026-06-22T20:00:01.999872,15.97083483,.00006302,53.1558,293.5287,48.1389,305.4025,0,U,69529,999,282,-.38779139E-2,-.1719659E-1,.86602279E-3
STARLINK-37670,2026-133Y,2026-06-22T20:00:01.999872,15.97643770,.00006902,53.1559,293.5055,54.0508,310.7898,0,U,69530,999,282,-.3695996E-2,-.1690962E-1,.84451342E-3
STARLINK-37897,2026-133Z,2026-06-22T20:00:01.999872,15.98020730,.00008094,53.1557,293.4857,49.3777,324.7017,0,U,69531,999,277,-.3600347E-2,-.1682241E-1,.83986049E-3
STARLINK-37933,2026-133AA,2026-06-22T20:00:01.999872,15.98620044,.00008557,53.1558,293.4613,52.5020,333.1763,0,U,69532,999,277,-.3446338E-2,-.1665444E-1,.82976879E-3
STARLINK-37890,2026-133AB,2026-06-22T20:00:01.999872,15.98945178,.00008836,53.1559,293.4459,49.7401,343.3026,0,U,69533,999,277,-.33483943E-2,-.164824E-1,.81688213E-3
STARLINK-37407,2026-133AC,2026-06-22T20:00:01.999872,15.99391324,.00010047,53.1555,293.4233,35.3942,8.1915,0,U,69534,999,282,-.32438193E-2,-.1637744E-1,.81123586E-3
STARLINK-37888,2026-133AD,2026-06-22T20:00:01.999872,15.99860665,.00009435,53.1559,293.4034,48.9168,4.1289,0,U,69535,999,277,-.31369639E-2,-.1626797E-1,.80537927E-3
STARLINK-37889,2026-133AE,2026-06-22T20:00:01.999872,15.94113354,.0000882,53.1581,293.6743,55.1071,229.7960,0,U,69536,999,277,-.46809421E-2,-.1766896E-1,.88288761E-3
2026-134A,2026-134A,2026-06-22T15:00:12.361248,15.09246977,.00144157,97.7006,243.7482,250.6893,109.2777,0,U,69538,999,113,.21465336E-3,.3358E-4,0
2026-134B,2026-134B,2026-06-22T05:26:19.256064,15.09401265,.0014488,97.6979,243.3479,254.9990,104.9635,0,U,69539,999,106,.22126556E-3,.3478E-4,0
2026-134C,2026-134C,2026-06-22T05:26:06.821376,15.09432574,.0013918,97.6985,243.3486,256.3323,103.6356,0,U,69540,999,106,.22309204E-3,.351E-4,0
2026-134D,2026-134D,2026-06-22T05:25:43.536576,15.09489256,.0014953,97.7021,243.3518,255.8010,104.1557,0,U,69541,999,106,.21596366E-3,.3402E-4,0
2026-134E,2026-134E,2026-06-22T14:58:18.505056,15.09514083,.00147797,97.7045,243.7531,255.1300,104.8292,0,U,69542,999,112,.22306221E-3,.3518E-4,0
2026-134F,2026-134F,2026-06-22T05:25:16.317984,15.09557797,.00140229,97.6996,243.3501,258.7453,101.2200,0,U,69543,999,106,.22567087E-3,.3564E-4,0
2026-134G,2026-134G,2026-06-22T10:11:02.994144,15.09642094,.00145106,97.7040,243.5537,258.7523,101.2075,0,U,69544,999,109,.2227695E-3,.3526E-4,0
2026-134H,2026-134H,2026-06-22T05:24:16.168032,15.09706714,.00143753,97.7025,243.3533,260.9671,98.9931,0,U,69545,999,105,.22796473E-3,.3616E-4,0
SHIJIAN-31 (SJ-31),2026-136A,2026-06-16T20:21:12.015072,2.28095748,.73104056,63.4649,356.1810,171.7246,356.2040,0,U,69570,999,5,.28088145E-3,.6163E-4,.247514E-6
